start=new Date('2023-05-27T00:00:00.000Z').valueOf();
sats=[{"MEAN_MOTION_DDOT":"0.0000000000000","FILE":"3917850","MEAN_MOTION_DOT":"0.00013797","ARG_OF_PERICENTER":"96.7469","REV_AT_EPOCH":"17210","SEMIMAJOR_AXIS":"6925.258","REF_FRAME":"TEME","MEAN_ANOMALY":"263.3632","DECAY_DATE":null,"NORAD_CAT_ID":"45581","EPHEMERIS_TYPE":"0","RA_OF_ASC_NODE":"325.6445","COUNTRY_CODE":"US","MEAN_ELEMENT_THEORY":"SGP4","BSTAR":"0.00094259000000","PERIAPSIS":"546.442","OBJECT_TYPE":"PAYLOAD","TLE_LINE2":"2 45581  53.0543 325.6445 0000984  96.7469 263.3632 15.06429452172100","GP_ID":"232583882","OBJECT_NAME":"STARLINK-1335","APOAPSIS":"547.805","ECCENTRICITY":"0.00009840","TIME_SYSTEM":"UTC","EPOCH":"2023-05-26T21:38:46.993056","INCLINATION":"53.0543","MEAN_MOTION":"15.06429452","CLASSIFICATION_TYPE":"U","RCS_SIZE":"LARGE","PERIOD":"95.590","TLE_LINE1":"1 45581U 20025BC  23146.90193279  .00013797  00000-0  94259-3 0  9997","SITE":"AFETR","OBJECT_ID":"2020-025BC","LAUNCH_DATE":"2020-04-22","ELEMENT_SET_NO":"999","CENTER_NAME":"EARTH"},{"CLASSIFICATION_TYPE":"U","RCS_SIZE":"LARGE","PERIOD":"95.591","MEAN_MOTION":"15.06424178","LAUNCH_DATE":"2020-04-22","ELEMENT_SET_NO":"999","CENTER_NAME":"EARTH","TLE_LINE1":"1 45582U 20025BD  23146.79135317  .00015324  00000-0  10447-2 0  9998","SITE":"AFETR","OBJECT_ID":"2020-025BD","OBJECT_NAME":"STARLINK-1337","GP_ID":"232583632","APOAPSIS":"547.878","ECCENTRICITY":"0.00010660","OBJECT_TYPE":"PAYLOAD","TLE_LINE2":"2 45582  53.0559 326.1403 0001066 104.7824 255.3283 15.06424178172085","INCLINATION":"53.0559","TIME_SYSTEM":"UTC","EPOCH":"2023-05-26T18:59:32.913888","DECAY_DATE":null,"EPHEMERIS_TYPE":"0","NORAD_CAT_ID":"45582","RA_OF_ASC_NODE":"326.1403","COUNTRY_CODE":"US","MEAN_ANOMALY":"255.3283","PERIAPSIS":"546.401","MEAN_ELEMENT_THEORY":"SGP4","BSTAR":"0.00104470000000","FILE":"3917850","MEAN_MOTION_DDOT":"0.0000000000000","REV_AT_EPOCH":"17208","SEMIMAJOR_AXIS":"6925.274","REF_FRAME":"TEME","MEAN_MOTION_DOT":"0.00015324","ARG_OF_PERICENTER":"104.7824"},{"SITE":"AFETR","OBJECT_ID":"2020-025BE","TLE_LINE1":"1 45583U 20025BE  23146.90561491  .00018819  00000-0  12775-2 0  9996","CENTER_NAME":"EARTH","LAUNCH_DATE":"2020-04-22","ELEMENT_SET_NO":"999","MEAN_MOTION":"15.06440243","PERIOD":"95.590","CLASSIFICATION_TYPE":"U","RCS_SIZE":"LARGE","EPOCH":"2023-05-26T21:44:05.128224","TIME_SYSTEM":"UTC","INCLINATION":"53.0546","TLE_LINE2":"2 45583  53.0546 325.6266 0000216  72.6752 287.4261 15.06440243172108","OBJECT_TYPE":"PAYLOAD","ECCENTRICITY":"0.00002160","APOAPSIS":"547.240","GP_ID":"232582380","OBJECT_NAME":"STARLINK-1340","MEAN_ELEMENT_THEORY":"SGP4","BSTAR":"0.00127750000000","PERIAPSIS":"546.941","MEAN_ANOMALY":"287.4261","NORAD_CAT_ID":"45583","DECAY_DATE":null,"EPHEMERIS_TYPE":"0","RA_OF_ASC_NODE":"325.6266","COUNTRY_CODE":"US","MEAN_MOTION_DOT":"0.00018819","ARG_OF_PERICENTER":"72.6752","SEMIMAJOR_AXIS":"6925.225","REF_FRAME":"TEME","REV_AT_EPOCH":"17210","MEAN_MOTION_DDOT":"0.0000000000000","FILE":"3917850"},{"REF_FRAME":"TEME","SEMIMAJOR_AXIS":"6717.826","REV_AT_EPOCH":"17231","ARG_OF_PERICENTER":"87.9108","MEAN_MOTION_DOT":"0.00005961","FILE":"3917850","MEAN_MOTION_DDOT":"0.0000000000000","PERIAPSIS":"338.986","BSTAR":"0.00004037200000","MEAN_ELEMENT_THEORY":"SGP4","RA_OF_ASC_NODE":"309.7613","COUNTRY_CODE":"US","NORAD_CAT_ID":"45584","DECAY_DATE":null,"EPHEMERIS_TYPE":"0","MEAN_ANOMALY":"272.2031","INCLINATION":"53.0500","EPOCH":"2023-05-26T17:48:22.465152","TIME_SYSTEM":"UTC","ECCENTRICITY":"0.00010500","GP_ID":"232583131","APOAPSIS":"340.397","OBJECT_NAME":"STARLINK-1343","TLE_LINE2":"2 45584  53.0500 309.7613 0001050  87.9108 272.2031 15.76738236172318","OBJECT_TYPE":"PAYLOAD","CENTER_NAME":"EARTH","ELEMENT_SET_NO":"999","LAUNCH_DATE":"2020-04-22","OBJECT_ID":"2020-025BF","SITE":"AFETR","TLE_LINE1":"1 45584U 20025BF  23146.74192668  .00005961  00000-0  40372-4 0  9995","PERIOD":"91.328","RCS_SIZE":"LARGE","CLASSIFICATION_TYPE":"U","MEAN_MOTION":"15.76738236"},{"EPOCH":"2023-05-26T18:48:55.992096","TIME_SYSTEM":"UTC","INCLINATION":"53.0553","TLE_LINE2":"2 45586  53.0553 326.1730 0001124 124.9891 235.1204 15.06428158172079","OBJECT_TYPE":"PAYLOAD","ECCENTRICITY":"0.00011240","GP_ID":"232583382","OBJECT_NAME":"STARLINK-1347","APOAPSIS":"547.906","SITE":"AFETR","OBJECT_ID":"2020-025BH","TLE_LINE1":"1 45586U 20025BH  23146.78398139  .00012999  00000-0  88930-3 0  9992","CENTER_NAME":"EARTH","ELEMENT_SET_NO":"999","LAUNCH_DATE":"2020-04-22","MEAN_MOTION":"15.06428158","PERIOD":"95.590","CLASSIFICATION_TYPE":"U","RCS_SIZE":"LARGE","MEAN_MOTION_DOT":"0.00012999","ARG_OF_PERICENTER":"124.9891","SEMIMAJOR_AXIS":"6925.262","REF_FRAME":"TEME","REV_AT_EPOCH":"17207","MEAN_MOTION_DDOT":"0.0000000000000","FILE":"3917850","MEAN_ELEMENT_THEORY":"SGP4","BSTAR":"0.00088930000000","PERIAPSIS":"546.349","MEAN_ANOMALY":"235.1204","NORAD_CAT_ID":"45586","DECAY_DATE":null,"EPHEMERIS_TYPE":"0","RA_OF_ASC_NODE":"326.1730","COUNTRY_CODE":"US"},{"ARG_OF_PERICENTER":"72.9686","MEAN_MOTION_DOT":"0.00041421","REV_AT_EPOCH":"17210","REF_FRAME":"TEME","SEMIMAJOR_AXIS":"6925.272","MEAN_MOTION_DDOT":"0.0000000000000","FILE":"3917850","BSTAR":"0.00278150000000","MEAN_ELEMENT_THEORY":"SGP4","PERIAPSIS":"546.250","MEAN_ANOMALY":"287.1443","RA_OF_ASC_NODE":"325.7148","COUNTRY_CODE":"US","EPHEMERIS_TYPE":"0","DECAY_DATE":null,"NORAD_CAT_ID":"45587","TIME_SYSTEM":"UTC","EPOCH":"2023-05-26T21:17:35.223072","INCLINATION":"53.0542","OBJECT_TYPE":"PAYLOAD","TLE_LINE2":"2 45587  53.0542 325.7148 0001281  72.9686 287.1443 15.06424970172108","OBJECT_NAME":"STARLINK-1349","GP_ID":"232584133","APOAPSIS":"548.024","ECCENTRICITY":"0.00012810","TLE_LINE1":"1 45587U 20025BJ  23146.88721323  .00041421  00000-0  27815-2 0  9995","OBJECT_ID":"2020-025BJ","SITE":"AFETR","ELEMENT_SET_NO":"999","LAUNCH_DATE":"2020-04-22","CENTER_NAME":"EARTH","MEAN_MOTION":"15.06424970","RCS_SIZE":"LARGE","CLASSIFICATION_TYPE":"U","PERIOD":"95.591"},{"MEAN_MOTION":"15.06428916","PERIOD":"95.590","CLASSIFICATION_TYPE":"U","RCS_SIZE":"LARGE","SITE":"AFETR","OBJECT_ID":"2020-025BK","TLE_LINE1":"1 45588U 20025BK  23146.73237087  .00004501  00000-0  32058-3 0  9993","CENTER_NAME":"EARTH","ELEMENT_SET_NO":"999","LAUNCH_DATE":"2020-04-22","TLE_LINE2":"2 45588  53.0547 326.4091 0000972 110.6191 249.4902 15.06428916172077","OBJECT_TYPE":"PAYLOAD","ECCENTRICITY":"0.00009720","GP_ID":"232582881","OBJECT_NAME":"STARLINK-1360","APOAPSIS":"547.798","EPOCH":"2023-05-26T17:34:36.843168","TIME_SYSTEM":"UTC","INCLINATION":"53.0547","MEAN_ANOMALY":"249.4902","DECAY_DATE":null,"NORAD_CAT_ID":"45588","EPHEMERIS_TYPE":"0","COUNTRY_CODE":"US","RA_OF_ASC_NODE":"326.4091","MEAN_ELEMENT_THEORY":"SGP4","BSTAR":"0.00032058000000","PERIAPSIS":"546.452","MEAN_MOTION_DDOT":"0.0000000000000","FILE":"3917850","MEAN_MOTION_DOT":"0.00004501","ARG_OF_PERICENTER":"110.6191","SEMIMAJOR_AXIS":"6925.260","REF_FRAME":"TEME","REV_AT_EPOCH":"17207"},{"ARG_OF_PERICENTER":"87.2721","MEAN_MOTION_DOT":"0.00011145","REV_AT_EPOCH":"17207","REF_FRAME":"TEME","SEMIMAJOR_AXIS":"6925.284","MEAN_MOTION_DDOT":"0.0000000000000","FILE":"3917850","BSTAR":"0.00076546000000","MEAN_ELEMENT_THEORY":"SGP4","PERIAPSIS":"546.545","MEAN_ANOMALY":"272.8368","COUNTRY_CODE":"US","RA_OF_ASC_NODE":"326.4223","NORAD_CAT_ID":"45589","DECAY_DATE":null,"EPHEMERIS_TYPE":"0","TIME_SYSTEM":"UTC","EPOCH":"2023-05-26T17:29:19.313664","INCLINATION":"53.0551","OBJECT_TYPE":"PAYLOAD","TLE_LINE2":"2 45589  53.0551 326.4223 0000872  87.2721 272.8368 15.06421144172079","GP_ID":"232582631","APOAPSIS":"547.753","OBJECT_NAME":"STARLINK-1364","ECCENTRICITY":"0.00008720","TLE_LINE1":"1 45589U 20025BL  23146.72869576  .00011145  00000-0  76546-3 0  9999","OBJECT_ID":"2020-025BL","SITE":"AFETR","ELEMENT_SET_NO":"999","LAUNCH_DATE":"2020-04-22","CENTER_NAME":"EARTH","MEAN_MOTION":"15.06421144","RCS_SIZE":"LARGE","CLASSIFICATION_TYPE":"U","PERIOD":"95.591"},{"RA_OF_ASC_NODE":"356.3570","COUNTRY_CODE":"US","DECAY_DATE":null,"NORAD_CAT_ID":"45590","EPHEMERIS_TYPE":"0","MEAN_ANOMALY":"245.0371","PERIAPSIS":"546.551","BSTAR":"0.00048841000000","MEAN_ELEMENT_THEORY":"SGP4","FILE":"3917850","MEAN_MOTION_DDOT":"0.0000000000000","REF_FRAME":"TEME","SEMIMAJOR_AXIS":"6925.286","REV_AT_EPOCH":"17167","ARG_OF_PERICENTER":"115.0708","MEAN_MOTION_DOT":"0.00007005","PERIOD":"95.591","RCS_SIZE":"LARGE","CLASSIFICATION_TYPE":"U","MEAN_MOTION":"15.06420414","CENTER_NAME":"EARTH","ELEMENT_SET_NO":"999","LAUNCH_DATE":"2020-04-22","OBJECT_ID":"2020-025BM","SITE":"AFETR","TLE_LINE1":"1 45590U 20025BM  23146.74436196  .00007005  00000-0  48841-3 0  9998","ECCENTRICITY":"0.00008670","APOAPSIS":"547.751","GP_ID":"232583883","OBJECT_NAME":"STARLINK-1365","TLE_LINE2":"2 45590  53.0545 356.3570 0000867 115.0708 245.0371 15.06420414171670","OBJECT_TYPE":"PAYLOAD","INCLINATION":"53.0545","EPOCH":"2023-05-26T17:51:52.873344","TIME_SYSTEM":"UTC"},{"CENTER_NAME":"EARTH","LAUNCH_DATE":"2020-06-04","ELEMENT_SET_NO":"999","SITE":"AFETR","OBJECT_ID":"2020-035B","TLE_LINE1":"1 45658U 20035B   23146.85125008  .00015464  00000-0  10539-2 0  9993","PERIOD":"95.590","CLASSIFICATION_TYPE":"U","RCS_SIZE":"LARGE","MEAN_MOTION":"15.06430251","INCLINATION":"53.0539","EPOCH":"2023-05-26T20:25:48.006912","TIME_SYSTEM":"UTC","ECCENTRICITY":"0.00010110","GP_ID":"232583387","OBJECT_NAME":"STARLINK-1441","APOAPSIS":"547.821","TLE_LINE2":"2 45658  53.0539 315.8703 0001011  88.1496 271.9609 15.06430251165329","OBJECT_TYPE":"PAYLOAD","PERIAPSIS":"546.421","MEAN_ELEMENT_THEORY":"SGP4","BSTAR":"0.00105390000000","EPHEMERIS_TYPE":"0","DECAY_DATE":null,"NORAD_CAT_ID":"45658","RA_OF_ASC_NODE":"315.8703","COUNTRY_CODE":"US","MEAN_ANOMALY":"271.9609","SEMIMAJOR_AXIS":"6925.256","REF_FRAME":"TEME","REV_AT_EPOCH":"16532","MEAN_MOTION_DOT":"0.00015464","ARG_OF_PERICENTER":"88.1496","FILE":"3917850","MEAN_MOTION_DDOT":"0.0000000000000"}];
